{
    "links": {
        "self": "http://www.neowsapp.com/rest/v1/neo/3710230?api_key=iIulBulltgU6a56xZRHN4H3l9WmuAYTsLGpBGhQ2"
    },
    "id": "3710230",
    "neo_reference_id": "3710230",
    "name": "(2015 CX13)",
    "designation": "2015 CX13",
    "nasa_jpl_url": "http://ssd.jpl.nasa.gov/sbdb.cgi?sstr=3710230",
    "absolute_magnitude_h": 21.7,
    "estimated_diameter": {
        "kilometers": {
            "estimated_diameter_min": 0.1214940408,
            "estimated_diameter_max": 0.2716689341
        },
        "meters": {
            "estimated_diameter_min": 121.4940407996,
            "estimated_diameter_max": 271.6689340891
        },
        "miles": {
            "estimated_diameter_min": 0.0754928736,
            "estimated_diameter_max": 0.1688071972
        },
        "feet": {
            "estimated_diameter_min": 398.6025088171,
            "estimated_diameter_max": 891.3023057169
        }
    },
    "is_potentially_hazardous_asteroid": false,
    "close_approach_data": [
        {
            "close_approach_date": "2015-02-23",
            "close_approach_date_full": "2015-Feb-23 20:52",
            "epoch_date_close_approach": 1424724720000,
            "relative_velocity": {
                "kilometers_per_second": "22.3272746576",
                "kilometers_per_hour": "80378.1887672995",
                "miles_per_hour": "49943.8806815479"
            },
            "miss_distance": {
                "astronomical": "0.1589566151",
                "lunar": "61.8341232739",
                "kilometers": "23779571.041369837",
                "miles": "14775940.2756522706"
            },
            "orbiting_body": "Earth"
        }
    ],
    "orbital_data": {
        "orbit_id": "6",
        "orbit_determination_date": "2017-04-06 08:35:39",
        "first_observation_date": "2015-02-11",
        "last_observation_date": "2015-02-25",
        "data_arc_in_days": 14,
        "observations_used": 42,
        "orbit_uncertainty": "8",
        "minimum_orbit_intersection": ".133424",
        "jupiter_tisserand_invariant": "3.766",
        "epoch_osculation": "2457068.5",
        "eccentricity": ".5090497136259845",
        "semi_major_axis": "1.790382043944803",
        "inclination": "31.66920855332424",
        "ascending_node_longitude": "149.9574580112442",
        "orbital_period": "875.0180206871321",
        "perihelion_distance": ".878988577193596",
        "perihelion_argument": "74.14825911831805",
        "aphelion_distance": "2.70177551069601",
        "perihelion_time": "2457127.133356182645",
        "mean_anomaly": "335.8770588413979",
        "mean_motion": ".4114200982024347",
        "equinox": "J2000",
        "orbit_class": {
            "orbit_class_type": "APO",
            "orbit_class_description": "Near-Earth asteroid orbits which cross the Earth’s orbit similar to that of 1862 Apollo",
            "orbit_class_range": "a (semi-major axis) > 1.0 AU; q (perihelion) < 1.017 AU"
        }
    },
    "is_sentry_object": false
}